CCSDS_OMM_VERS,COMMENT,CREATION_DATE,ORIGINATOR,OBJECT_NAME,OBJECT_ID,CENTER_NAME,REF_FRAME,TIME_SYSTEM,MEAN_ELEMENT_THEORY,EPOCH,MEAN_MOTION,ECCENTRICITY,INCLINATION,RA_OF_ASC_NODE,ARG_OF_PERICENTER,MEAN_ANOMALY,EPHEMERIS_TYPE,CLASSIFICATION_TYPE,NORAD_CAT_ID,ELEMENT_SET_NO,REV_AT_EPOCH,BSTAR,MEAN_MOTION_DOT,MEAN_MOTION_DDOT,SEMIMAJOR_AXIS,PERIOD,APOAPSIS,PERIAPSIS,OBJECT_TYPE,RCS_SIZE,COUNTRY_CODE,LAUNCH_DATE,SITE,DECAY_DATE,FILE,GP_ID,TLE_LINE0,TLE_LINE1,TLE_LINE2
"2.0","GENERATED VIA SPACE-TRACK.ORG API","2020-01-13T05:01:04","18 SPCS","IRIDIUM 176","2019-002B","EARTH","TEME","UTC","SGP4","2020-01-12T18:11:59.379360","14.72252469","0.00021270","86.6108","254.5437","83.1245","277.0214","0","U","43923","999","5387","0.00001829200000","0.00000140","0.0000000000000","7032.023","97.809","655.384","652.392","PAYLOAD","LARGE","US","2019-01-11","AFWTR","","2682982","146679192","0 IRIDIUM 176","1 43923U 19002B   20012.75832615 +.00000140 +00000-0 +18292-4 0  9996","2 43923 086.6108 254.5437 0002127 083.1245 277.0214 14.72252469053875"
"2.0","GENERATED VIA SPACE-TRACK.ORG API","2020-01-12T16:20:13","18 SPCS","IRIDIUM 176","2019-002B","EARTH","TEME","UTC","SGP4","2020-01-12T14:56:14.560800","14.72252431","0.00021280","86.6108","254.6005","83.0404","277.1055","0","U","43923","999","5385","0.00001851400000","0.00000141","0.0000000000000","7032.023","97.809","655.385","652.392","PAYLOAD","LARGE","US","2019-01-11","AFWTR","","2682760","146656479","0 IRIDIUM 176","1 43923U 19002B   20012.62239075  .00000141  00000-0  18514-4 0  9991","2 43923  86.6108 254.6005 0002128  83.0404 277.1055 14.72252431 53855"
"2.0","GENERATED VIA SPACE-TRACK.ORG API","2020-01-12T22:50:16","18 SPCS","SL-18 DEB","1993-014BJ","EARTH","TEME","UTC","SGP4","2020-01-12T13:59:19.126464","14.79916592","0.00645800","75.7412","111.9016","253.6155","105.7925","0","U","35359","999","65973","0.00044813000000","0.00003486","0.0000000000000","7007.724","97.302","674.845","584.333","DEBRIS","SMALL","CIS","1993-03-25","PKMTR","","2682927","146659736","0 SL-18 DEB","1 35359U 93014BJ  20012.58286026  .00003486  00000-0  44813-3 0  9998","2 35359  75.7412 111.9016 0064580 253.6155 105.7925 14.79916592659734"
"2.0","GENERATED VIA SPACE-TRACK.ORG API","2020-01-12T02:44:24","18 SPCS","IRIDIUM 176","2019-002B","EARTH","TEME","UTC","SGP4","2020-01-11T17:43:53.211648","14.72252252","0.00021400","86.6109","254.9697","82.8883","277.2578","0","U","43923","999","5372","0.00001940200000","0.00000147","0.0000000000000","7032.024","97.809","655.394","652.384","PAYLOAD","LARGE","US","2019-01-11","AFWTR","","2682418","146647625","0 IRIDIUM 176","1 43923U 19002B   20011.73881032 +.00000147 +00000-0 +19402-4 0  9991","2 43923 086.6109 254.9697 0002140 082.8883 277.2578 14.72252252053726"
"2.0","GENERATED VIA SPACE-TRACK.ORG API","2020-01-11T17:00:14","18 SPCS","IRIDIUM 176","2019-002B","EARTH","TEME","UTC","SGP4","2020-01-11T14:28:08.387040","14.72252243","0.00021380","86.6109","255.0265","82.7944","277.3516","0","U","43923","999","5370","0.00002014100000","0.00000152","0.0000000000000","7032.024","97.809","655.392","652.385","PAYLOAD","LARGE","US","2019-01-11","AFWTR","","2682214","146585920","0 IRIDIUM 176","1 43923U 19002B   20011.60287485  .00000152  00000-0  20141-4 0  9997","2 43923  86.6109 255.0265 0002138  82.7944 277.3516 14.72252243 53704"
"2.0","GENERATED VIA SPACE-TRACK.ORG API","2020-01-11T23:00:16","18 SPCS","SL-18 DEB","1993-014BJ","EARTH","TEME","UTC","SGP4","2020-01-11T13:39:05.236704","14.79909365","0.00644900","75.7413","113.6900","256.0473","103.3536","0","U","35359","999","65958","0.00048428000000","0.00003768","0.0000000000000","7007.747","97.303","674.805","584.419","DEBRIS","SMALL","CIS","1993-03-25","PKMTR","","2682379","146628278","0 SL-18 DEB","1 35359U 93014BJ  20011.56881061  .00003768  00000-0  48428-3 0  9994","2 35359  75.7413 113.6900 0064490 256.0473 103.3536 14.79909365659581"
"2.0","GENERATED VIA SPACE-TRACK.ORG API","2020-01-11T06:20:15","18 SPCS","IRIDIUM 176","2019-002B","EARTH","TEME","UTC","SGP4","2020-01-11T03:03:01.501344","14.72252136","0.00021390","86.6109","255.2253","82.7842","277.3619","0","U","43923","999","5363","0.00002021400000","0.00000152","0.0000000000000","7032.024","97.809","655.393","652.385","PAYLOAD","LARGE","US","2019-01-11","AFWTR","","2681907","146578855","0 IRIDIUM 176","1 43923U 19002B   20011.12710071  .00000152  00000-0  20214-4 0  9997","2 43923  86.6109 255.2253 0002139  82.7842 277.3619 14.72252136 53638"
"2.0","GENERATED VIA SPACE-TRACK.ORG API","2020-01-11T04:11:21","18 SPCS","IRIDIUM 176","2019-002B","EARTH","TEME","UTC","SGP4","2020-01-10T22:09:24.266592","14.72252067","0.00021440","86.6110","255.3104","82.6274","277.5187","0","U","43923","999","5360","0.00002026800000","0.00000152","0.0000000000000","7032.024","97.809","655.397","652.382","PAYLOAD","LARGE","US","2019-01-11","AFWTR","","2681885","146577516","0 IRIDIUM 176","1 43923U 19002B   20010.92319753 +.00000152 +00000-0 +20268-4 0  9995","2 43923 086.6110 255.3104 0002144 082.6274 277.5187 14.72252067053602"
"2.0","GENERATED VIA SPACE-TRACK.ORG API","2020-01-11T04:11:21","18 SPCS","SL-18 DEB","1993-014BJ","EARTH","TEME","UTC","SGP4","2020-01-10T14:56:11.890176","14.79902144","0.00644000","75.7414","115.3592","258.3260","101.0694","0","U","35359","999","65878","0.00048547000000","0.00003776","0.0000000000000","7007.770","97.303","674.765","584.504","DEBRIS","SMALL","CIS","1993-03-25","PKMTR","","2681885","146571168","0 SL-18 DEB","1 35359U 93014BJ  20010.62235984 +.00003776 +00000-0 +48547-3 0  9998","2 35359 075.7414 115.3592 0064400 258.3260 101.0694 14.79902144658787"
"2.0","GENERATED VIA SPACE-TRACK.ORG API","2020-01-10T14:50:16","18 SPCS","SL-18 DEB","1993-014BJ","EARTH","TEME","UTC","SGP4","2020-01-10T06:49:27.026976","14.79899220","0.00643490","75.7410","115.9553","259.1366","100.2573","0","U","35359","999","65939","0.00044941000000","0.00003493","0.0000000000000","7007.779","97.303","674.738","584.549","DEBRIS","SMALL","CIS","1993-03-25","PKMTR","","2681629","146514659","0 SL-18 DEB","1 35359U 93014BJ  20010.28434059  .00003493  00000-0  44941-3 0  9994","2 35359  75.7410 115.9553 0064349 259.1366 100.2573 14.79899220659399"
"2.0","GENERATED VIA SPACE-TRACK.ORG API","2020-01-10T04:00:00","18 SPCS","IRIDIUM 176","2019-002B","EARTH","TEME","UTC","SGP4","2020-01-09T18:25:33.249216","14.72251787","0.00021610","86.6110","255.7932","82.3970","277.7492","0","U","43923","999","5343","0.00001907000000","0.00000145","0.0000000000000","7032.025","97.809","655.410","652.371","PAYLOAD","LARGE","US","2019-01-11","AFWTR","","2681237","146485261","0 IRIDIUM 176","1 43923U 19002B   20009.76774594 +.00000145 +00000-0 +19070-4 0  9994","2 43923 086.6110 255.7932 0002161 082.3970 277.7492 14.72251787053434"
"2.0","GENERATED VIA SPACE-TRACK.ORG API","2020-01-10T04:00:00","18 SPCS","SL-18 DEB","1993-014BJ","EARTH","TEME","UTC","SGP4","2020-01-09T12:58:36.162912","14.79893316","0.00642830","75.7409","117.2669","260.9330","98.4578","0","U","35359","999","65862","0.00042283000000","0.00003285","0.0000000000000","7007.797","97.304","674.711","584.614","DEBRIS","SMALL","CIS","1993-03-25","PKMTR","","2681237","146478912","0 SL-18 DEB","1 35359U 93014BJ  20009.54069633 +.00003285 +00000-0 +42283-3 0  9999","2 35359 075.7409 117.2669 0064283 260.9330 098.4578 14.79893316658626"
"2.0","GENERATED VIA SPACE-TRACK.ORG API","2020-01-10T00:10:14","18 SPCS","IRIDIUM 176","2019-002B","EARTH","TEME","UTC","SGP4","2020-01-09T03:44:41.525952","14.72251643","0.00021700","86.6112","256.0487","82.0937","278.0526","0","U","43923","999","5334","0.00001883100000","0.00000143","0.0000000000000","7032.026","97.809","655.417","652.365","PAYLOAD","LARGE","US","2019-01-11","AFWTR","","2681206","146466344","0 IRIDIUM 176","1 43923U 19002B   20009.15603618  .00000143  00000-0  18831-4 0  9997","2 43923  86.6112 256.0487 0002170  82.0937 278.0526 14.72251643 53348"
"2.0","GENERATED VIA SPACE-TRACK.ORG API","2020-01-09T22:30:14","18 SPCS","IRIDIUM 176","2019-002B","EARTH","TEME","UTC","SGP4","2020-01-09T03:44:41.525952","14.72251643","0.00021700","86.6112","256.0487","82.0937","278.0526","0","U","43923","999","5334","0.00001883100000","0.00000143","0.0000000000000","7032.026","97.809","655.417","652.365","PAYLOAD","LARGE","US","2019-01-11","AFWTR","","2681074","146463781","0 IRIDIUM 176","1 43923U 19002B   20009.15603618  .00000143  00000-0  18831-4 0  9997","2 43923  86.6112 256.0487 0002170  82.0937 278.0526 14.72251643 53348"
"2.0","GENERATED VIA SPACE-TRACK.ORG API","2020-01-09T06:40:16","18 SPCS","SL-18 DEB","1993-014BJ","EARTH","TEME","UTC","SGP4","2020-01-08T23:59:48.102720","14.79889648","0.00642160","75.7409","118.2206","262.2373","97.1519","0","U","35359","999","65920","0.00041611000000","0.00003231","0.0000000000000","7007.809","97.304","674.675","584.673","DEBRIS","SMALL","CIS","1993-03-25","PKMTR","","2680839","146419362","0 SL-18 DEB","1 35359U 93014BJ  20008.99986230  .00003231  00000-0  41611-3 0  9993","2 35359  75.7409 118.2206 0064216 262.2373  97.1519 14.79889648659201"
"2.0","GENERATED VIA SPACE-TRACK.ORG API","2020-01-08T14:20:16","18 SPCS","IRIDIUM 176","2019-002B","EARTH","TEME","UTC","SGP4","2020-01-08T09:48:04.965984","14.72251480","0.00021880","86.6112","256.3611","81.8982","278.2483","0","U","43923","999","5323","0.00001892500000","0.00000144","0.0000000000000","7032.026","97.809","655.430","652.353","PAYLOAD","LARGE","US","2019-01-11","AFWTR","","2680384","146351138","0 IRIDIUM 176","1 43923U 19002B   20008.40839081  .00000144  00000-0  18925-4 0  9994","2 43923  86.6112 256.3611 0002188  81.8982 278.2483 14.72251480 53237"
